CCSDS_OMM_VERS = 2.0
CREATION_DATE  = 
ORIGINATOR     = 

OBJECT_NAME    = STARLINK-37096
OBJECT_ID      = 2026-054H
CENTER_NAME    = EARTH
REF_FRAME      = TEME
TIME_SYSTEM    = UTC
MEAN_ELEMENT_THEORY = SGP/SGP4

EPOCH          = 2026-04-03T06:41:02.903712
MEAN_MOTION    = 15.80912651
ECCENTRICITY   = .00012252
INCLINATION    = 53.1583
RA_OF_ASC_NODE = 189.3760
ARG_OF_PERICENTER = 68.8228
MEAN_ANOMALY   = 291.2925

EPHEMERIS_TYPE = 0
CLASSIFICATION_TYPE = U
NORAD_CAT_ID   = 68239
ELEMENT_SET_NO = 999
REV_AT_EPOCH   = 266
BSTAR          = .94523539E-3
MEAN_MOTION_DOT = .190376E-2
MEAN_MOTION_DDOT = 0

CCSDS_OMM_VERS = 2.0
CREATION_DATE  = 
ORIGINATOR     = 

OBJECT_NAME    = STARLINK-37092
OBJECT_ID      = 2026-054J
CENTER_NAME    = EARTH
REF_FRAME      = TEME
TIME_SYSTEM    = UTC
MEAN_ELEMENT_THEORY = SGP/SGP4

EPOCH          = 2026-04-01T18:17:24.050688
MEAN_MOTION    = 15.80699611
ECCENTRICITY   = .0000901
INCLINATION    = 53.1592
RA_OF_ASC_NODE = 196.9847
ARG_OF_PERICENTER = 264.3006
MEAN_ANOMALY   = 95.7914

EPHEMERIS_TYPE = 0
CLASSIFICATION_TYPE = U
NORAD_CAT_ID   = 68240
ELEMENT_SET_NO = 999
REV_AT_EPOCH   = 242
BSTAR          = .21526474E-2
MEAN_MOTION_DOT = .443187E-2
MEAN_MOTION_DDOT = 0

CCSDS_OMM_VERS = 2.0
CREATION_DATE  = 
ORIGINATOR     = 

OBJECT_NAME    = STARLINK-37094
OBJECT_ID      = 2026-054K
CENTER_NAME    = EARTH
REF_FRAME      = TEME
TIME_SYSTEM    = UTC
MEAN_ELEMENT_THEORY = SGP/SGP4

EPOCH          = 2026-04-03T06:39:58.131360
MEAN_MOTION    = 15.80833987
ECCENTRICITY   = .00017667
INCLINATION    = 53.1588
RA_OF_ASC_NODE = 189.3703
ARG_OF_PERICENTER = 144.2318
MEAN_ANOMALY   = 215.8824

EPHEMERIS_TYPE = 0
CLASSIFICATION_TYPE = U
NORAD_CAT_ID   = 68241
ELEMENT_SET_NO = 999
REV_AT_EPOCH   = 266
BSTAR          = .11141512E-2
MEAN_MOTION_DOT = .224609E-2
MEAN_MOTION_DDOT = 0

CCSDS_OMM_VERS = 2.0
CREATION_DATE  = 
ORIGINATOR     = 

OBJECT_NAME    = STARLINK-36356
OBJECT_ID      = 2026-054L
CENTER_NAME    = EARTH
REF_FRAME      = TEME
TIME_SYSTEM    = UTC
MEAN_ELEMENT_THEORY = SGP/SGP4

EPOCH          = 2026-04-03T06:00:00.999648
MEAN_MOTION    = 15.75075673
ECCENTRICITY   = .00010583
INCLINATION    = 53.1590
RA_OF_ASC_NODE = 189.6282
ARG_OF_PERICENTER = 84.0045
MEAN_ANOMALY   = 59.5184

EPHEMERIS_TYPE = 0
CLASSIFICATION_TYPE = U
NORAD_CAT_ID   = 68242
ELEMENT_SET_NO = 999
REV_AT_EPOCH   = 390
BSTAR          = .15646483E-2
MEAN_MOTION_DOT = .244517E-2
MEAN_MOTION_DDOT = 0

CCSDS_OMM_VERS = 2.0
CREATION_DATE  = 
ORIGINATOR     = 

OBJECT_NAME    = STARLINK-36345
OBJECT_ID      = 2026-054M
CENTER_NAME    = EARTH
REF_FRAME      = TEME
TIME_SYSTEM    = UTC
MEAN_ELEMENT_THEORY = SGP/SGP4

EPOCH          = 2026-04-03T07:08:03.823872
MEAN_MOTION    = 15.75247684
ECCENTRICITY   = .00013721
INCLINATION    = 53.1600
RA_OF_ASC_NODE = 189.4996
ARG_OF_PERICENTER = 88.0190
MEAN_ANOMALY   = 272.0987

EPHEMERIS_TYPE = 0
CLASSIFICATION_TYPE = U
NORAD_CAT_ID   = 68243
ELEMENT_SET_NO = 999
REV_AT_EPOCH   = 266
BSTAR          = .83814732E-3
MEAN_MOTION_DOT = .129877E-2
MEAN_MOTION_DDOT = 0

CCSDS_OMM_VERS = 2.0
CREATION_DATE  = 
ORIGINATOR     = 

OBJECT_NAME    = STARLINK-36310
OBJECT_ID      = 2026-054N
CENTER_NAME    = EARTH
REF_FRAME      = TEME
TIME_SYSTEM    = UTC
MEAN_ELEMENT_THEORY = SGP/SGP4

EPOCH          = 2026-04-03T06:35:38.748192
MEAN_MOTION    = 15.80905967
ECCENTRICITY   = .00010073
INCLINATION    = 53.1592
RA_OF_ASC_NODE = 189.3505
ARG_OF_PERICENTER = 83.0940
MEAN_ANOMALY   = 277.0197

EPHEMERIS_TYPE = 0
CLASSIFICATION_TYPE = U
NORAD_CAT_ID   = 68244
ELEMENT_SET_NO = 999
REV_AT_EPOCH   = 266
BSTAR          = .98511908E-3
MEAN_MOTION_DOT = .198568E-2
MEAN_MOTION_DDOT = 0

CCSDS_OMM_VERS = 2.0
CREATION_DATE  = 
ORIGINATOR     = 

OBJECT_NAME    = STARLINK-36247
OBJECT_ID      = 2026-054P
CENTER_NAME    = EARTH
REF_FRAME      = TEME
TIME_SYSTEM    = UTC
MEAN_ELEMENT_THEORY = SGP/SGP4

EPOCH          = 2026-04-03T06:36:43.149024
MEAN_MOTION    = 15.80888383
ECCENTRICITY   = .00009749
INCLINATION    = 53.1592
RA_OF_ASC_NODE = 189.3551
ARG_OF_PERICENTER = 91.3747
MEAN_ANOMALY   = 268.7388

EPHEMERIS_TYPE = 0
CLASSIFICATION_TYPE = U
NORAD_CAT_ID   = 68245
ELEMENT_SET_NO = 999
REV_AT_EPOCH   = 266
BSTAR          = .12618526E-2
MEAN_MOTION_DOT = .256057E-2
MEAN_MOTION_DDOT = 0

CCSDS_OMM_VERS = 2.0
CREATION_DATE  = 
ORIGINATOR     = 

OBJECT_NAME    = STARLINK-37043
OBJECT_ID      = 2026-054Q
CENTER_NAME    = EARTH
REF_FRAME      = TEME
TIME_SYSTEM    = UTC
MEAN_ELEMENT_THEORY = SGP/SGP4

EPOCH          = 2026-04-03T06:34:33.591360
MEAN_MOTION    = 15.80915170
ECCENTRICITY   = .00015964
INCLINATION    = 53.1584
RA_OF_ASC_NODE = 189.3448
ARG_OF_PERICENTER = 46.6770
MEAN_ANOMALY   = 313.4386

EPHEMERIS_TYPE = 0
CLASSIFICATION_TYPE = U
NORAD_CAT_ID   = 68246
ELEMENT_SET_NO = 999
REV_AT_EPOCH   = 266
BSTAR          = .76206395E-3
MEAN_MOTION_DOT = .152694E-2
MEAN_MOTION_DDOT = 0

CCSDS_OMM_VERS = 2.0
CREATION_DATE  = 
ORIGINATOR     = 

OBJECT_NAME    = STARLINK-37044
OBJECT_ID      = 2026-054R
CENTER_NAME    = EARTH
REF_FRAME      = TEME
TIME_SYSTEM    = UTC
MEAN_ELEMENT_THEORY = SGP/SGP4

EPOCH          = 2026-04-03T06:33:28.768896
MEAN_MOTION    = 15.80953515
ECCENTRICITY   = .00013707
INCLINATION    = 53.1587
RA_OF_ASC_NODE = 189.3402
ARG_OF_PERICENTER = 125.9029
MEAN_ANOMALY   = 234.2122

EPHEMERIS_TYPE = 0
CLASSIFICATION_TYPE = U
NORAD_CAT_ID   = 68247
ELEMENT_SET_NO = 999
REV_AT_EPOCH   = 266
BSTAR          = .12596982E-2
MEAN_MOTION_DOT = .256396E-2
MEAN_MOTION_DDOT = 0

CCSDS_OMM_VERS = 2.0
CREATION_DATE  = 
ORIGINATOR     = 

OBJECT_NAME    = STARLINK-36997
OBJECT_ID      = 2026-054S
CENTER_NAME    = EARTH
REF_FRAME      = TEME
TIME_SYSTEM    = UTC
MEAN_ELEMENT_THEORY = SGP/SGP4

EPOCH          = 2026-04-03T05:30:09.407520
MEAN_MOTION    = 15.75315508
ECCENTRICITY   = .00006797
INCLINATION    = 53.1596
RA_OF_ASC_NODE = 189.7848
ARG_OF_PERICENTER = 88.1117
MEAN_ANOMALY   = 271.9982

EPHEMERIS_TYPE = 0
CLASSIFICATION_TYPE = U
NORAD_CAT_ID   = 68248
ELEMENT_SET_NO = 999
REV_AT_EPOCH   = 265
BSTAR          = .14971647E-2
MEAN_MOTION_DOT = .23617E-2
MEAN_MOTION_DDOT = 0

CCSDS_OMM_VERS = 2.0
CREATION_DATE  = 
ORIGINATOR     = 

OBJECT_NAME    = STARLINK-37141
OBJECT_ID      = 2026-054T
CENTER_NAME    = EARTH
REF_FRAME      = TEME
TIME_SYSTEM    = UTC
MEAN_ELEMENT_THEORY = SGP/SGP4

EPOCH          = 2026-04-03T06:00:00.999648
MEAN_MOTION    = 15.75091254
ECCENTRICITY   = .00012333
INCLINATION    = 53.1591
RA_OF_ASC_NODE = 189.5227
ARG_OF_PERICENTER = 72.3589
MEAN_ANOMALY   = 122.6651

EPHEMERIS_TYPE = 0
CLASSIFICATION_TYPE = U
NORAD_CAT_ID   = 68249
ELEMENT_SET_NO = 999
REV_AT_EPOCH   = 394
BSTAR          = .13782508E-2
MEAN_MOTION_DOT = .214689E-2
MEAN_MOTION_DDOT = 0

CCSDS_OMM_VERS = 2.0
CREATION_DATE  = 
ORIGINATOR     = 

OBJECT_NAME    = STARLINK-37087
OBJECT_ID      = 2026-054U
CENTER_NAME    = EARTH
REF_FRAME      = TEME
TIME_SYSTEM    = UTC
MEAN_ELEMENT_THEORY = SGP/SGP4

EPOCH          = 2026-04-03T06:00:00.999648
MEAN_MOTION    = 15.75103584
ECCENTRICITY   = .00015575
INCLINATION    = 53.1589
RA_OF_ASC_NODE = 189.5793
ARG_OF_PERICENTER = 124.0314
MEAN_ANOMALY   = 43.3691

EPHEMERIS_TYPE = 0
CLASSIFICATION_TYPE = U
NORAD_CAT_ID   = 68250
ELEMENT_SET_NO = 999
REV_AT_EPOCH   = 386
BSTAR          = .12879979E-2
MEAN_MOTION_DOT = .200354E-2
MEAN_MOTION_DDOT = 0

