STARLINK-37096          
1 68239U 26054H   26093.27850583  .00190376  00000+0  94524-3 0  9995
2 68239  53.1583 189.3760 0001225  68.8228 291.2925 15.80912651  2665
STARLINK-37092          
1 68240U 26054J   26091.76208392  .00443187  00000+0  21526-2 0  9996
2 68240  53.1592 196.9847 0000901 264.3006  95.7914 15.80699611  2421
STARLINK-37094          
1 68241U 26054K   26093.27775615  .00224609  00000+0  11142-2 0  9991
2 68241  53.1588 189.3703 0001766 144.2318 215.8824 15.80833987  2663
STARLINK-36356          
1 68242U 26054L   26093.25001157  .00244517  00000+0  15646-2 0  9996
2 68242  53.1590 189.6282 0001058  84.0045  59.5184 15.75075673  3908
STARLINK-36345          
1 68243U 26054M   26093.29726648  .00129877  00000+0  83815-3 0  9995
2 68243  53.1600 189.4996 0001372  88.0190 272.0987 15.75247684  2663
STARLINK-36310          
1 68244U 26054N   26093.27475403  .00198568  00000+0  98512-3 0  9997
2 68244  53.1592 189.3505 0001007  83.0940 277.0197 15.80905967  2661
STARLINK-36247          
1 68245U 26054P   26093.27549941  .00256057  00000+0  12619-2 0  9998
2 68245  53.1592 189.3551 0000974  91.3747 268.7388 15.80888383  2663
STARLINK-37043          
1 68246U 26054Q   26093.27399990  .00152694  00000+0  76206-3 0  9991
2 68246  53.1584 189.3448 0001596  46.6770 313.4386 15.80915170  2661
STARLINK-37044          
1 68247U 26054R   26093.27324964  .00256396  00000+0  12597-2 0  9997
2 68247  53.1587 189.3402 0001370 125.9029 234.2122 15.80953515  2666
STARLINK-36997          
1 68248U 26054S   26093.22927555  .00236170  00000+0  14972-2 0  9995
2 68248  53.1596 189.7848 0000679  88.1117 271.9982 15.75315508  2653
STARLINK-37141          
1 68249U 26054T   26093.25001157  .00214689  00000+0  13783-2 0  9990
2 68249  53.1591 189.5227 0001233  72.3589 122.6651 15.75091254  3940
STARLINK-37087          
1 68250U 26054U   26093.25001157  .00200354  00000+0  12880-2 0  9993
2 68250  53.1589 189.5793 0001557 124.0314  43.3691 15.75103584  3861
